STARLINK-33794          
1 63820U 25092S   26068.30477631  .00031429  00000+0  11457-2 0  9998
2 63820  42.9993 174.9040 0001633 276.8561  83.2105 15.27611759 48555
BANDWAGON-4 OBJECT Q    
1 66307U 25248Q   26067.98911828  .00022547  00000+0  92242-3 0  9991
2 66307  45.4076 295.4821 0011280 209.4727 150.5526 15.23978167 19300
